{"type": "FeatureCollection", "features": [ {"type": "Feature", "properties": {"norad_id": 30529, "name": "FENGYUN 1C DEB", "group": "fengyun-1c-debris", "lat": -75.622793099339, "lon": 49.649746018414945, "alt_km": 846.9114952463215, "timestamp": "2025-12-08T23:34:04.246471+00:00", "meta": {"OBJECT_NAME": "FENGYUN 1C DEB", "OBJECT_ID": "1999-025AJT", "EPOCH": "2025-12-06T17:47:03.624288", "MEAN_MOTION": 13.71588709, "ECCENTRICITY": 0.02311835, "INCLINATION": 98.4889, "RA_OF_ASC_NODE": 263.2998, "ARG_OF_PERICENTER": 238.5675, "MEAN_ANOMALY": 119.2686, "EPHEMERIS_TYPE": 0, "CLASSIFICATION_TYPE": "U", "NORAD_CAT_ID": 30529, "ELEMENT_SET_NO": 999, "REV_AT_EPOCH": 93926, "BSTAR": 0.001633705, "MEAN_MOTION_DOT": 1.743e-05, "MEAN_MOTION_DDOT": 0}, "tle": {"line1": "1 30529U 99025AJT 25340.74101417  .00001743  00000+0  16337-2 0  9999", "line2": "2 30529  98.4889 263.2998 0231183 238.5675 119.2686 13.71588709939261"}}, "geometry": {"type": "Point", "coordinates": [49.649746018414945, -75.622793099339]}}, {"type": "Feature", "properties": {"norad_id": 30530, "name": "FENGYUN 1C DEB", "group": "fengyun-1c-debris", "lat": 68.32296012056618, "lon": -0.37025788417776084, "alt_km": 746.8823393668308, "timestamp": "2025-12-08T23:34:04.246484+00:00", "meta": {"OBJECT_NAME": "FENGYUN 1C DEB", "OBJECT_ID": "1999-025AJU", "EPOCH": "2025-12-08T08:29:34.154592", "MEAN_MOTION": 14.3677356, "ECCENTRICITY": 0.01000512, "INCLINATION": 98.3969, "RA_OF_ASC_NODE": 20.8317, "ARG_OF_PERICENTER": 149.7954, "MEAN_ANOMALY": 274.2706, "EPHEMERIS_TYPE": 0, "CLASSIFICATION_TYPE": "U", "NORAD_CAT_ID": 30530, "ELEMENT_SET_NO": 999, "REV_AT_EPOCH": 98722, "BSTAR": 0.00046070092, "MEAN_MOTION_DOT": 1.396e-05, "MEAN_MOTION_DDOT": 0}, "tle": {"line1": "1 30530U 99025AJU 25342.35386753  .00001396  00000+0  46070-3 0  9990", "line2": "2 30530  98.3969  20.8317 0100051 149.7954 274.2706 14.36773560987222"}}, "geometry": {"type": "Point", "coordinates": [-0.37025788417776084, 68.32296012056618]}}, {"type": "Feature", "properties": {"norad_id": 30531, "name": "FENGYUN 1C DEB", "group": "fengyun-1c-debris", "lat": 48.271100094201394, "lon": 1.4949730567425872, "alt_km": 682.189982479118, "timestamp": "2025-12-08T23:34:04.246494+00:00", "meta": {"OBJECT_NAME": "FENGYUN 1C DEB", "OBJECT_ID": "1999-025AJV", "EPOCH": "2025-12-08T11:28:18.183072", "MEAN_MOTION": 14.61548151, "ECCENTRICITY": 0.00285379, "INCLINATION": 102.3103, "RA_OF_ASC_NODE": 166.5755, "ARG_OF_PERICENTER": 217.5869, "MEAN_ANOMALY": 142.3322, "EPHEMERIS_TYPE": 0, "CLASSIFICATION_TYPE": "U", "NORAD_CAT_ID": 30531, "ELEMENT_SET_NO": 999, "REV_AT_EPOCH": 97633, "BSTAR": 0.0050356337, "MEAN_MOTION_DOT": 0.00025161, "MEAN_MOTION_DDOT": 0}, "tle": {"line1": "1 30531U 99025AJV 25342.47798823  .00025161  00000+0  50356-2 0  9996", "line2": "2 30531 102.3103 166.5755 0028537 217.5869 142.3322 14.61548151976333"}}, "geometry": {"type": "Point", "coordinates": [1.4949730567425872, 48.271100094201394]}}, {"type": "Feature", "properties": {"norad_id": 30532, "name": "FENGYUN 1C DEB", "group": "fengyun-1c-debris", "lat": 60.42877532632519, "lon": -139.0752548246328, "alt_km": 507.8615720302141, "timestamp": "2025-12-08T23:34:04.246505+00:00", "meta": {"OBJECT_NAME": "FENGYUN 1C DEB", "OBJECT_ID": "1999-025AJW", "EPOCH": "2025-12-08T02:32:21.332544", "MEAN_MOTION": 15.22180129, "ECCENTRICITY": 0.00266716, "INCLINATION": 96.9606, "RA_OF_ASC_NODE": 27.6792, "ARG_OF_PERICENTER": 272.5961, "MEAN_ANOMALY": 87.2224, "EPHEMERIS_TYPE": 0, "CLASSIFICATION_TYPE": "U", "NORAD_CAT_ID": 30532, "ELEMENT_SET_NO": 999, "REV_AT_EPOCH": 97617, "BSTAR": 0.012437508, "MEAN_MOTION_DOT": 0.00299424, "MEAN_MOTION_DDOT": 0}, "tle": {"line1": "1 30532U 99025AJW 25342.10580246  .00299424  00000+0  12438-1 0  9998", "line2": "2 30532  96.9606  27.6792 0026671 272.5961  87.2224 15.22180129976174"}}, "geometry": {"type": "Point", "coordinates": [-139.0752548246328, 60.42877532632519]}}, {"type": "Feature", "properties": {"norad_id": 30533, "name": "FENGYUN 1C DEB", "group": "fengyun-1c-debris", "lat": -36.45437482142599, "lon": -75.00608960466921, "alt_km": 687.1052874061616, "timestamp": "2025-12-08T23:34:04.246515+00:00", "meta": {"OBJECT_NAME": "FENGYUN 1C DEB", "OBJECT_ID": "1999-025AJX", "EPOCH": "2025-12-08T14:23:15.891936", "MEAN_MOTION": 14.53594607, "ECCENTRICITY": 0.00831632, "INCLINATION": 98.8346, "RA_OF_ASC_NODE": 111.1882, "ARG_OF_PERICENTER": 161.7349, "MEAN_ANOMALY": 213.864, "EPHEMERIS_TYPE": 0, "CLASSIFICATION_TYPE": "U", "NORAD_CAT_ID": 30533, "ELEMENT_SET_NO": 999, "REV_AT_EPOCH": 97761, "BSTAR": 0.0055158373, "MEAN_MOTION_DOT": 0.00024158, "MEAN_MOTION_DDOT": 0}, "tle": {"line1": "1 30533U 99025AJX 25342.59948949  .00024158  00000+0  55158-2 0  9997", "line2": "2 30533  98.8346 111.1882 0083163 161.7349 213.8640 14.53594607977616"}}, "geometry": {"type": "Point", "coordinates": [-75.00608960466921, -36.45437482142599]}}, {"type": "Feature", "properties": {"norad_id": 30539, "name": "FENGYUN 1C DEB", "group": "fengyun-1c-debris", "lat": -77.50931346009342, "lon": 8.088583387795863, "alt_km": 634.4089494097689, "timestamp": "2025-12-08T23:34:04.246526+00:00", "meta": {"OBJECT_NAME": "FENGYUN 1C DEB", "OBJECT_ID": "1999-025AKD", "EPOCH": "2025-12-08T09:05:00.379968", "MEAN_MOTION": 14.55351318, "ECCENTRICITY": 0.01156835, "INCLINATION": 98.8796, "RA_OF_ASC_NODE": 322.5596, "ARG_OF_PERICENTER": 289.1865, "MEAN_ANOMALY": 69.6839, "EPHEMERIS_TYPE": 0, "CLASSIFICATION_TYPE": "U", "NORAD_CAT_ID": 30539, "ELEMENT_SET_NO": 999, "REV_AT_EPOCH": 99302, "BSTAR": 0.00097249001, "MEAN_MOTION_DOT": 4.561e-05, "MEAN_MOTION_DDOT": 0}, "tle": {"line1": "1 30539U 99025AKD 25342.37847662  .00004561  00000+0  97249-3 0  9993", "line2": "2 30539  98.8796 322.5596 0115683 289.1865  69.6839 14.55351318993024"}}, "geometry": {"type": "Point", "coordinates": [8.088583387795863, -77.50931346009342]}}, {"type": "Feature", "properties": {"norad_id": 30540, "name": "FENGYUN 1C DEB", "group": "fengyun-1c-debris", "lat": 76.76270557853267, "lon": 49.58923357854704, "alt_km": 740.0989482334508, "timestamp": "2025-12-08T23:34:04.246536+00:00", "meta": {"OBJECT_NAME": "FENGYUN 1C DEB", "OBJECT_ID": "1999-025AKE", "EPOCH": "2025-12-08T13:12:34.316352", "MEAN_MOTION": 14.32209003, "ECCENTRICITY": 0.00519471, "INCLINATION": 98.8791, "RA_OF_ASC_NODE": 90.7946, "ARG_OF_PERICENTER": 74.8593, "MEAN_ANOMALY": 301.2052, "EPHEMERIS_TYPE": 0, "CLASSIFICATION_TYPE": "U", "NORAD_CAT_ID": 30540, "ELEMENT_SET_NO": 999, "REV_AT_EPOCH": 97226, "BSTAR": 0.0027327657, "MEAN_MOTION_DOT": 7.435e-05, "MEAN_MOTION_DDOT": 0}, "tle": {"line1": "1 30540U 99025AKE 25342.55039718  .00007435  00000+0  27328-2 0  9993", "line2": "2 30540  98.8791  90.7946 0051947  74.8593 301.2052 14.32209003972266"}}, "geometry": {"type": "Point", "coordinates": [49.58923357854704, 76.76270557853267]}}, {"type": "Feature", "properties": {"norad_id": 30541, "name": "FENGYUN 1C DEB", "group": "fengyun-1c-debris", "lat": -56.57797174792479, "lon": -163.83601614682289, "alt_km": 832.5480835956987, "timestamp": "2025-12-08T23:34:04.246569+00:00", "meta": {"OBJECT_NAME": "FENGYUN 1C DEB", "OBJECT_ID": "1999-025AKF", "EPOCH": "2025-12-08T14:01:08.577120", "MEAN_MOTION": 14.23021722, "ECCENTRICITY": 0.00185379, "INCLINATION": 98.6944, "RA_OF_ASC_NODE": 29.1785, "ARG_OF_PERICENTER": 97.5735, "MEAN_ANOMALY": 262.755, "EPHEMERIS_TYPE": 0, "CLASSIFICATION_TYPE": "U", "NORAD_CAT_ID": 30541, "ELEMENT_SET_NO": 999, "REV_AT_EPOCH": 97268, "BSTAR": 0.0018403163, "MEAN_MOTION_DOT": 4.112e-05, "MEAN_MOTION_DDOT": 0}, "tle": {"line1": "1 30541U 99025AKF 25342.58412705  .00004112  00000+0  18403-2 0  9991", "line2": "2 30541  98.6944  29.1785 0018537  97.5735 262.7550 14.23021722972680"}}, "geometry": {"type": "Point", "coordinates": [-163.83601614682289, -56.57797174792479]}}, {"type": "Feature", "properties": {"norad_id": 30542, "name": "FENGYUN 1C DEB", "group": "fengyun-1c-debris", "lat": -38.144337287741415, "lon": 18.81327397077168, "alt_km": 857.7452103981695, "timestamp": "2025-12-08T23:34:04.246581+00:00", "meta": {"OBJECT_NAME": "FENGYUN 1C DEB", "OBJECT_ID": "1999-025AKG", "EPOCH": "2025-12-08T15:48:37.262304", "MEAN_MOTION": 14.06971175, "ECCENTRICITY": 0.00276492, "INCLINATION": 98.7875, "RA_OF_ASC_NODE": 11.5217, "ARG_OF_PERICENTER": 345.9833, "MEAN_ANOMALY": 139.2824, "EPHEMERIS_TYPE": 0, "CLASSIFICATION_TYPE": "U", "NORAD_CAT_ID": 30542, "ELEMENT_SET_NO": 999, "REV_AT_EPOCH": 96861, "BSTAR": 0.00026243765, "MEAN_MOTION_DOT": 3.96e-06, "MEAN_MOTION_DDOT": 0}, "tle": {"line1": "1 30542U 99025AKG 25342.65876461  .00000396  00000+0  26244-3 0  9996", "line2": "2 30542  98.7875  11.5217 0027649 345.9833 139.2824 14.06971175968610"}}, "geometry": {"type": "Point", "coordinates": [18.81327397077168, -38.144337287741415]}}, {"type": "Feature", "properties": {"norad_id": 30543, "name": "FENGYUN 1C DEB", "group": "fengyun-1c-debris", "lat": 77.7148517390004, "lon": -52.90889187763784, "alt_km": 831.6190387717406, "timestamp": "2025-12-08T23:34:04.246591+00:00", "meta": {"OBJECT_NAME": "FENGYUN 1C DEB", "OBJECT_ID": "1999-025AKH", "EPOCH": "2025-12-08T06:22:03.254880", "MEAN_MOTION": 14.03733674, "ECCENTRICITY": 0.0072576, "INCLINATION": 98.8328, "RA_OF_ASC_NODE": 351.9594, "ARG_OF_PERICENTER": 45.9729, "MEAN_ANOMALY": 15.2819, "EPHEMERIS_TYPE": 0, "CLASSIFICATION_TYPE": "U", "NORAD_CAT_ID": 30543, "ELEMENT_SET_NO": 999, "REV_AT_EPOCH": 96442, "BSTAR": 0.00056693991, "MEAN_MOTION_DOT": 8.71e-06, "MEAN_MOTION_DDOT": 0}, "tle": {"line1": "1 30543U 99025AKH 25342.26531545  .00000871  00000+0  56694-3 0  9995", "line2": "2 30543  98.8328 351.9594 0072576  45.9729  15.2819 14.03733674964423"}}, "geometry": {"type": "Point", "coordinates": [-52.90889187763784, 77.7148517390004]}}]}